CCSDS_OMM_VERS,COMMENT,CREATION_DATE,ORIGINATOR,OBJECT_NAME,OBJECT_ID,CENTER_NAME,REF_FRAME,TIME_SYSTEM,MEAN_ELEMENT_THEORY,EPOCH,MEAN_MOTION,ECCENTRICITY,INCLINATION,RA_OF_ASC_NODE,ARG_OF_PERICENTER,MEAN_ANOMALY,EPHEMERIS_TYPE,CLASSIFICATION_TYPE,NORAD_CAT_ID,ELEMENT_SET_NO,REV_AT_EPOCH,BSTAR,MEAN_MOTION_DOT,MEAN_MOTION_DDOT,SEMIMAJOR_AXIS,PERIOD,APOAPSIS,PERIAPSIS,OBJECT_TYPE,RCS_SIZE,COUNTRY_CODE,LAUNCH_DATE,SITE,DECAY_DATE,FILE,GP_ID,TLE_LINE0,TLE_LINE1,TLE_LINE2,NORAD_KEY
3.0,GENERATED VIA SPACE-TRACK.ORG API,2026-05-06T10:08:52,18 SPCS,INSAT 1D,1990-051A,EARTH,TEME,UTC,SGP4,2026-05-06T03:15:39.417696,1.00276147,0.00152092,14.6145,354.2856,191.7472,168.3651,0,U,20643,999,11832,0.00000000000000,-0.00000168,0.0000000000000,42163.509,1436.034,35849.501,35721.247,PAYLOAD,LARGE,IND,1990-06-12,AFETR,,5176958,322263516,0 INSAT 1D,1 20643U 90051A   26126.13587289 -.00000168  00000-0  00000-0 0  9996,2 20643  14.6145 354.2856 0015209 191.7472 168.3651  1.00276147118322,20643
3.0,GENERATED VIA SPACE-TRACK.ORG API,2026-05-06T14:56:52,18 SPCS,METEOSAT 5 (MOP 2),1991-015B,EARTH,TEME,UTC,SGP4,2026-05-06T12:20:16.771200,0.98453556,0.0009962,14.6689,350.2999,272.43,301.8745,0,U,21140,999,12979,0.00000000000000,-0.00000241,0.0000000000000,42682.276,1462.619,36346.661,36261.621,PAYLOAD,LARGE,ESA,1991-03-02,FRGUI,,5177435,322303806,0 METEOSAT 5 (MOP 2),1 21140U 91015B   26126.51408300 -.00000241  00000-0  00000+0 0  9999,2 21140  14.6689 350.2999 0009962 272.4300 301.8745  0.98453556129796,21140
3.0,GENERATED VIA SPACE-TRACK.ORG API,2026-05-06T10:08:52,18 SPCS,SPACENET 2,1984-114A,EARTH,TEME,UTC,SGP4,2026-05-06T02:30:36.238176,0.99755812,0.00078344,14.6733,352.3424,74.7502,118.4359,0,U,15385,999,12655,0.00000000000000,-0.00000204,0.0000000000000,42310.001,1443.525,35965.013,35898.719,PAYLOAD,LARGE,US,1984-11-10,FRGUI,,5176958,322262404,0 SPACENET 2,1 15385U 84114A   26126.10458609 -.00000204  00000-0  00000-0 0  9997,2 15385  14.6733 352.3424 0007834  74.7502 118.4359  0.99755812126554,15385
3.0,GENERATED VIA SPACE-TRACK.ORG API,2026-05-06T14:56:52,18 SPCS,AURORA 2,1991-037A,EARTH,TEME,UTC,SGP4,2026-05-06T08:04:37.710912,0.99019055,0.0005514,14.6828,5.5846,286.7874,67.5705,0,U,21392,999,12631,0.00000000000000,-0.00000114,0.0000000000000,42519.615,1454.266,36164.925,36118.035,PAYLOAD,LARGE,US,1991-05-29,AFETR,,5177446,322303943,0 AURORA 2,1 21392U 91037A   26126.33654758 -.00000114  00000-0  00000+0 0  9991,2 21392  14.6828   5.5846 0005514 286.7874  67.5705  0.99019055126314,21392
3.0,GENERATED VIA SPACE-TRACK.ORG API,2026-05-06T14:46:56,18 SPCS,NSS 513 (INTELSAT 513),1988-040A,EARTH,TEME,UTC,SGP4,2026-05-06T06:22:49.555776,0.98574008,0.001199,14.6902,349.1215,104.2037,244.3347,0,U,19121,999,11412,0.00000000000000,-0.00000131,0.0000000000000,42647.499,1460.831,36320.498,36218.229,PAYLOAD,LARGE,NETH,1988-05-17,FRGUI,,5177310,322301269,0 NSS 513 (INTELSAT 513),1 19121U 88040A   26126.26585134 -.00000131  00000-0  00000+0 0  9990,2 19121  14.6902 349.1215 0011990 104.2037 244.3347  0.98574008114127,19121
3.0,GENERATED VIA SPACE-TRACK.ORG API,2026-05-06T10:08:52,18 SPCS,SPACENET 3R,1988-018A,EARTH,TEME,UTC,SGP4,2026-05-06T04:07:11.971776,0.99656693,0.00034558,14.6916,0.0081,295.6293,252.7226,0,U,18951,999,12419,0.00000000000000,-0.00000070,0.0000000000000,42338.051,1444.961,35974.547,35945.285,PAYLOAD,LARGE,US,1988-03-11,FRGUI,,5176958,322263281,0 SPACENET 3R,1 18951U 88018A   26126.17166634 -.00000070  00000-0  00000-0 0  9998,2 18951  14.6916   0.0081 0003456 295.6293 252.7226  0.99656693124192,18951
3.0,GENERATED VIA SPACE-TRACK.ORG API,2026-05-06T14:56:52,18 SPCS,TVSAT 2,1989-062A,EARTH,TEME,UTC,SGP4,2026-05-06T02:31:33.517920,0.99842513,0.000207,14.694,356.1088,199.9809,339.7509,0,U,20168,999,13408,0.00000000000000,-0.00000163,0.0000000000000,42285.503,1442.271,35916.122,35898.615,PAYLOAD,LARGE,GER,1989-08-08,FRGUI,,5177406,322303443,0 TVSAT 2,1 20168U 89062A   26126.10524905 -.00000163  00000-0  00000+0 0  9995,2 20168  14.6940 356.1088 0002070 199.9809 339.7509  0.99842513134081,20168
3.0,GENERATED VIA SPACE-TRACK.ORG API,2026-05-06T02:32:52,18 SPCS,SATCOM K1,1986-003B,EARTH,TEME,UTC,SGP4,2026-05-05T14:51:39.548736,0.99553675,6.649e-05,14.6947,351.4186,278.5821,237.2524,0,U,16482,999,12402,0.00000000000000,0.00000084,0.0000000000000,42367.254,1446.456,35991.936,35986.302,PAYLOAD,LARGE,US,1986-01-12,AFETR,,5176277,322213818,0 SATCOM K1,1 16482U 86003B   26125.61920774  .00000084  00000-0  00000-0 0  9992,2 16482  14.6947 351.4186 0000665 278.5821 237.2524  0.99553675124025,16482
3.0,GENERATED VIA SPACE-TRACK.ORG API,2026-05-06T14:56:52,18 SPCS,USA 44,1989-069B,EARTH,TEME,UTC,SGP4,2026-05-06T12:16:31.168704,0.99123502,0.0012022,14.7036,4.3869,17.9778,185.7778,0,U,20203,999,2457,0.00000000000000,-0.00000274,0.0000000000000,42489.741,1452.733,36162.687,36060.525,PAYLOAD,,US,1989-09-04,AFETR,,5177406,322303446,0 USA 44,1 20203U 89069B   26126.51147186 -.00000274  00000-0  00000+0 0  9992,2 20203  14.7036   4.3869 0012022  17.9778 185.7778  0.99123502 24578,20203
3.0,GENERATED VIA SPACE-TRACK.ORG API,2026-05-06T02:32:52,18 SPCS,KOREASAT 1,1995-041A,EARTH,TEME,UTC,SGP4,2026-05-05T16:52:41.833344,0.99663215,0.00038132,14.7126,358.9436,319.4144,215.7879,0,U,23639,999,11210,0.00000000000000,0.00000093,0.0000000000000,42336.204,1444.866,35974.212,35941.925,PAYLOAD,LARGE,SKOR,1995-08-05,AFETR,,5176277,322215410,0 KOREASAT 1,1 23639U 95041A   26125.70326196  .00000093  00000-0  00000-0 0  9994,2 23639  14.7126 358.9436 0003813 319.4144 215.7879  0.99663215112100,23639
3.0,GENERATED VIA SPACE-TRACK.ORG API,2026-05-05T10:20:49,18 SPCS,SATCOM K2,1985-109D,EARTH,TEME,UTC,SGP4,2026-05-04T20:08:40.541568,0.99613536,0.00095196,14.7207,352.7228,288.4858,259.8197,0,U,16276,999,12516,0.00000000000000,-0.00000027,0.0000000000000,42350.278,1445.587,36012.459,35931.828,PAYLOAD,LARGE,US,1985-11-27,AFETR,,5174649,322142270,0 SATCOM K2,1 16276U 85109D   26124.83935812 -.00000027  00000-0  00000-0 0  9999,2 16276  14.7207 352.7228 0009520 288.4858 259.8197  0.99613536125161,16276
3.0,GENERATED VIA SPACE-TRACK.ORG API,2026-05-06T14:56:52,18 SPCS,EUTE 2-F4,1992-041B,EARTH,TEME,UTC,SGP4,2026-05-06T03:32:41.704224,0.99076362,0.0007323,14.7216,5.7498,271.5092,276.0288,0,U,22028,999,4633,0.00000000000000,-0.00000079,0.0000000000000,42503.217,1453.424,36156.208,36093.957,PAYLOAD,LARGE,EUTE,1992-07-09,FRGUI,,5177464,322304169,0 EUTE 2-F4,1 22028U 92041B   26126.14770491 -.00000079  00000-0  00000+0 0  9996,2 22028  14.7216   5.7498 0007323 271.5092 276.0288  0.99076362 46332,22028
3.0,GENERATED VIA SPACE-TRACK.ORG API,2026-05-06T14:56:52,18 SPCS,NEWSAT-1 (PALAPA B2R),1990-034A,EARTH,TEME,UTC,SGP4,2026-05-06T13:41:46.103136,0.99533347,0.0008365,14.7359,3.2239,141.3146,68.7194,0,U,20570,999,4587,0.00000000000000,-0.00000329,0.0000000000000,42373.022,1446.751,36030.332,35959.442,PAYLOAD,MEDIUM,US,1990-04-13,AFETR,,5177417,322303585,0 NEWSAT-1 (PALAPA B2R),1 20570U 90034A   26126.57067249 -.00000329  00000-0  00000+0 0  9991,2 20570  14.7359   3.2239 0008365 141.3146  68.7194  0.99533347 45878,20570
3.0,GENERATED VIA SPACE-TRACK.ORG API,2026-05-06T14:46:56,18 SPCS,TDF 1,1988-098A,EARTH,TEME,UTC,SGP4,2026-05-06T08:27:38.457216,0.99196879,0.0008763,14.736,350.6568,264.7624,276.4025,0,U,19621,999,13343,0.00000000000000,-0.00000154,0.0000000000000,42468.785,1451.659,36127.865,36053.435,PAYLOAD,LARGE,FR,1988-10-28,FRGUI,,5177317,322301362,0 TDF 1,1 19621U 88098A   26126.35252844 -.00000154  00000-0  00000+0 0  9992,2 19621  14.7360 350.6568 0008763 264.7624 276.4025  0.99196879133438,19621
3.0,GENERATED VIA SPACE-TRACK.ORG API,2026-05-06T15:06:46,18 SPCS,ARTEMIS,2001-029A,EARTH,TEME,UTC,SGP4,2026-05-06T11:16:13.355328,0.99294516,0.0011369,14.746,6.7812,174.1819,178.8429,0,U,26863,999,4343,0.00000000000000,-0.00000269,0.0000000000000,42440.94,1450.231,36111.057,36014.554,PAYLOAD,LARGE,ESA,2001-07-12,FRGUI,,5177723,322310788,0 ARTEMIS,1 26863U 01029A   26126.46959902 -.00000269  00000-0  00000+0 0  9995,2 26863  14.7460   6.7812 0011369 174.1819 178.8429  0.99294516 43432,26863
3.0,GENERATED VIA SPACE-TRACK.ORG API,2026-05-06T10:08:52,18 SPCS,LUCH,1994-082A,EARTH,TEME,UTC,SGP4,2026-05-05T14:22:17.397408,1.00166151,0.00041848,14.7496,354.9288,206.8513,153.09,0,U,23426,999,11483,0.00000000000000,-0.00000216,0.0000000000000,42194.371,1437.611,35833.894,35798.579,PAYLOAD,LARGE,CIS,1994-12-16,TTMTR,,5176958,322264571,0 LUCH,1 23426U 94082A   26125.59881247 -.00000216  00000-0  00000-0 0  9990,2 23426  14.7496 354.9288 0004185 206.8513 153.0900  1.00166151114838,23426
3.0,GENERATED VIA SPACE-TRACK.ORG API,2026-05-06T14:56:52,18 SPCS,MORELOS 2,1985-109B,EARTH,TEME,UTC,SGP4,2026-05-06T08:02:22.926048,0.99567826,0.0003045,14.7605,357.0231,150.4273,204.3288,0,U,16274,999,4593,0.00000000000000,-0.00000094,0.0000000000000,42363.239,1446.25,35998.004,35972.204,PAYLOAD,LARGE,MEX,1985-11-27,AFETR,,5177377,322302589,0 MORELOS 2,1 16274U 85109B   26126.33498757 -.00000094  00000-0  00000+0 0  9999,2 16274  14.7605 357.0231 0003045 150.4273 204.3288  0.99567826 45930,16274
3.0,GENERATED VIA SPACE-TRACK.ORG API,2026-05-06T14:46:56,18 SPCS,ASTRA 1A,1988-109B,EARTH,TEME,UTC,SGP4,2026-05-06T05:43:33.089088,0.98338131,0.0013877,14.7682,6.315,116.4657,64.0677,0,U,19688,999,11567,0.00000000000000,-0.00000015,0.0000000000000,42715.669,1464.335,36396.81,36278.257,PAYLOAD,LARGE,SES,1988-12-11,FRGUI,,5177318,322301792,0 ASTRA 1A,1 19688U 88109B   26126.23857742 -.00000015  00000-0  00000+0 0  9999,2 19688  14.7682   6.3150 0013877 116.4657  64.0677  0.98338131115679,19688
